STARLINK-30282          
1 57883U 23144V   26068.04325904  .00010945  00000+0  41723-3 0  9992
2 57883  43.0010 288.4148 0001358 272.5421  87.5275 15.26729095137546
NUSAT-45 (UZMASAT-1)    
1 62640U 25009AH  26068.15592621  .00012539  00000+0  48087-3 0  9996
2 62640  97.3985 150.3373 0001172   1.4631 358.6611 15.26632732 63634
